CityID,City,State,Lat,Lng,ElevationMeters,TimezoneName,UTCOffsetHours
4001,Abilene,TX,32.4487364,-99.73314390000002,520.9115600585938,Central Daylight Time,-5.0
4002,Akron,OH,41.0814447,-81.51900529999999,292.6947631835938,Eastern Daylight Time,-4.0
4003,Albany,NY,42.6525793,-73.7562317,42.68008041381836,Eastern Daylight Time,-4.0
4004,Albuquerque,NM,35.0853336,-106.6055534,1583.1875,Mountain Daylight Time,-6.0
4005,Allentown,PA,40.6084305,-75.4901833,104.9155654907227,Eastern Daylight Time,-4.0
4006,Ames,IA,42.0307812,-93.63191309999999,274.2550659179688,Central Daylight Time,-5.0
4007,Amherst,MA,42.3732216,-72.5198537,95.78414916992188,Eastern Daylight Time,-4.0
4008,Anaheim,CA,33.8365932,-117.9143012,47.60859680175781,Pacific Daylight Time,-7.0
4009,Anchorage,AK,61.2180556,-149.9002778,33.1964111328125,Alaska Daylight Time,-8.0
4010,Ann Arbor,MI,42.2808256,-83.7430378,263.4928283691406,Eastern Daylight Time,-4.0
4011,Annapolis,MD,38.9784453,-76.4921829,13.44588470458984,Eastern Daylight Time,-4.0
4012,Arlington,TX,32.735687,-97.10806559999999,185.2654876708984,Central Daylight Time,-5.0
4013,Asheville,NC,35.5950581,-82.5514869,676.4351806640625,Eastern Daylight Time,-4.0
4014,Athens,GA,33.9519347,-83.357567,213.8323516845703,Eastern Daylight Time,-4.0
4015,Athens,OH,39.3292396,-82.1012554,219.3882598876953,Eastern Daylight Time,-4.0
4016,Atlanta,GA,33.7489954,-84.3879824,320.0387878417969,Eastern Daylight Time,-4.0
4017,Atlantic City,NJ,39.3642834,-74.4229266,3.922453641891479,Eastern Daylight Time,-4.0
4018,Auburn,AL,32.6098566,-85.48078249999999,215.4762725830078,Central Daylight Time,-5.0
4019,Auburn Hills,MI,42.6875323,-83.2341028,292.1078796386719,Eastern Daylight Time,-4.0
4020,Austin,TX,30.267153,-97.7430608,149.1394653320312,Central Daylight Time,-5.0
4021,Bakersfield,CA,35.3732921,-119.0187125,122.5372314453125,Pacific Daylight Time,-7.0
4022,Baltimore,MD,39.2903848,-76.6121893,10.96754741668701,Eastern Daylight Time,-4.0
4023,Bangor,ME,44.80118210000001,-68.77781379999999,35.3848991394043,Eastern Daylight Time,-4.0
4024,Baton Rouge,LA,30.4582829,-91.1403196,15.10886287689209,Central Daylight Time,-5.0
4025,Bayamon,PR,18.389396,-66.1653224,30.27177429199219,Atlantic Standard Time,-4.0
4026,Beaumont,TX,30.080174,-94.1265562,5.101345539093018,Central Daylight Time,-5.0
4027,Berkeley,CA,37.8715926,-122.272747,51.61442184448242,Pacific Daylight Time,-7.0
4028,Bethlehem,PA,40.6259316,-75.37045789999999,110.9742736816406,Eastern Daylight Time,-4.0
4029,Billings,MT,45.7832856,-108.5006904,951.3828735351562,Mountain Daylight Time,-6.0
4030,Birmingham,AL,33.5206608,-86.80248999999999,186.2443695068359,Central Daylight Time,-5.0
4031,Blacksburg,VA,37.2295733,-80.4139393,634.6715087890625,Eastern Daylight Time,-4.0
4032,Bloomington,IN,39.165325,-86.52638569999999,233.7287750244141,Eastern Daylight Time,-4.0
4033,Boca Raton,FL,26.3683064,-80.1289321,6.029303550720215,Eastern Daylight Time,-4.0
4034,Boiling Springs,NC,35.254292,-81.6670407,269.4201354980469,Eastern Daylight Time,-4.0
4035,Boise,ID,43.6187102,-116.2146068,817.1220703125,Mountain Daylight Time,-6.0
4036,Boone,NC,36.216795,-81.6745517,980.9765625,Eastern Daylight Time,-4.0
4037,Borinquen,PR,18.220833,-66.590149,454.5361328125,Atlantic Standard Time,-4.0
4038,Bossier City,LA,32.5159852,-93.7321228,53.01473999023438,Central Daylight Time,-5.0
4039,Boston,MA,42.3600825,-71.0588801,10.44776248931885,Eastern Daylight Time,-4.0
4040,Boulder,CO,40.0149856,-105.2705456,1623.977416992188,Mountain Daylight Time,-6.0
4041,Bowling Green,KY,36.9685219,-86.4808043,160.5126342773438,Central Daylight Time,-5.0
4042,Bowling Green,OH,41.3747744,-83.6513229,210.7506256103516,Eastern Daylight Time,-4.0
4043,Bozeman,MT,45.6769979,-111.0429339,1473.49462890625,Mountain Daylight Time,-6.0
4044,Bridgeport,CT,41.1865478,-73.19517669999999,12.55598068237305,Eastern Daylight Time,-4.0
4045,Bronx,NY,40.8447819,-73.8648268,14.44775772094727,Eastern Daylight Time,-4.0
4046,Brookings,SD,44.3113573,-96.79838769999999,493.9803161621094,Central Daylight Time,-5.0
4047,Brooklyn,NY,40.6781784,-73.9441579,18.05331420898438,Eastern Daylight Time,-4.0
4048,Brooklyn Heights,NY,40.6960105,-73.9932872,27.11715507507324,Eastern Daylight Time,-4.0
4049,Buffalo,NY,42.88644679999999,-78.8783689,182.8298187255859,Eastern Daylight Time,-4.0
4050,Buies Creek,NC,35.4132168,-78.7355728,63.27493286132812,Eastern Daylight Time,-4.0
4051,Burlington,VT,44.4758825,-73.21207199999999,59.67926025390625,Eastern Daylight Time,-4.0
4052,Cambridge,MA,42.3736158,-71.10973349999999,6.376087188720703,Eastern Daylight Time,-4.0
4053,Cancun,MX,21.161908,-86.8515279,12.89237785339355,Central Standard Time,-6.0
4054,Cape Girardeau,MO,37.3058839,-89.51814759999999,107.4340057373047,Central Daylight Time,-5.0
4055,Carbondale,IL,37.7272727,-89.2167501,126.3381576538086,Central Daylight Time,-5.0
4056,Casper,WY,42.866632,-106.313081,1555.769897460938,Mountain Daylight Time,-6.0
4057,Cedar City,UT,37.67747689999999,-113.0618931,1782.531494140625,Mountain Daylight Time,-6.0
4058,Cedar Falls,IA,42.5348993,-92.4453161,262.4496765136719,Central Daylight Time,-5.0
4059,Cedar Park,TX,30.505198,-97.8202888,276.2288513183594,Central Daylight Time,-5.0
4060,Champaign,IL,40.1164204,-88.2433829,224.3040618896484,Central Daylight Time,-5.0
4061,Chapel Hill,NC,35.9131996,-79.0558445,148.55224609375,Eastern Daylight Time,-4.0
4062,Charleston,IL,39.4961458,-88.1761521,205.7160034179688,Central Daylight Time,-5.0
4063,Charleston,NC,32.7894181,-79.936842,4.923791885375977,Eastern Daylight Time,-4.0
4064,Charleston,SC,32.7764749,-79.93105120000001,3.889002323150635,Eastern Daylight Time,-4.0
4065,Charleston,WV,38.3498195,-81.6326234,181.6091461181641,Eastern Daylight Time,-4.0
4066,Charlotte,NC,35.2270869,-80.8431267,232.5149993896484,Eastern Daylight Time,-4.0
4067,Charlottesville,VA,38.0293059,-78.47667810000002,142.3699798583984,Eastern Daylight Time,-4.0
4068,Chattanooga,TN,35.0456297,-85.3096801,206.3250579833984,Eastern Daylight Time,-4.0
4069,Cheney,WA,47.4873895,-117.5757622,718.7050170898438,Pacific Daylight Time,-7.0
4070,Chestnut Hill,MA,42.3303798,-71.166187,59.72336196899414,Eastern Daylight Time,-4.0
4071,Chicago,IL,41.8781136,-87.6297982,181.5143737792969,Central Daylight Time,-5.0
4072,Cincinnati,OH,39.1031182,-84.5120196,167.9832916259766,Eastern Daylight Time,-4.0
4073,Clarksville,TN,36.5297706,-87.3594528,146.1344451904297,Central Daylight Time,-5.0
4074,Clemson,SC,34.6834382,-82.8373654,221.9318542480469,Eastern Daylight Time,-4.0
4075,Cleveland,OH,41.49932,-81.6943605,199.8629608154297,Eastern Daylight Time,-4.0
4076,Clinton,SC,34.4726276,-81.88065619999999,205.6438293457031,Eastern Daylight Time,-4.0
4077,College Park,MD,38.9896967,-76.93776,22.96251678466797,Eastern Daylight Time,-4.0
4078,College Station,TX,30.627977,-96.3344068,104.1191558837891,Central Daylight Time,-5.0
4079,Columbia,SC,34.0007104,-81.0348144,90.61096954345703,Eastern Daylight Time,-4.0
4080,Columbus,OH,39.9611755,-82.99879419999999,237.6291656494141,Eastern Daylight Time,-4.0
4081,Conway,AR,35.0886963,-92.4421011,93.8056640625,Central Daylight Time,-5.0
4082,Conway,SC,33.8360034,-79.0478143,9.80633544921875,Eastern Daylight Time,-4.0
4083,Cookeville,TN,36.162839,-85.5016423,336.294921875,Central Daylight Time,-5.0
4084,Coral Gables,FL,25.72149,-80.2683838,2.358245849609375,Eastern Daylight Time,-4.0
4085,Corpus Christi,TX,27.8005828,-97.39638099999999,2.022631406784058,Central Daylight Time,-5.0
4086,Corvallis,OR,44.5645659,-123.2620435,69.55359649658203,Pacific Daylight Time,-7.0
4087,Cullowhee,NC,35.3137111,-83.1765333,645.9476928710938,Eastern Daylight Time,-4.0
4088,Dallas,TX,32.7766642,-96.79698789999999,137.5745239257812,Central Daylight Time,-5.0
4089,Davidson,NC,35.4993031,-80.8486846,249.673095703125,Eastern Daylight Time,-4.0
4090,Davis,CA,38.5449065,-121.7405167,15.57017421722412,Pacific Daylight Time,-7.0
4091,Dayton,OH,39.7589478,-84.1916069,225.5588531494141,Eastern Daylight Time,-4.0
4092,Daytona Beach,FL,29.2108147,-81.0228331,4.296838283538818,Eastern Daylight Time,-4.0
4093,DeKalb,IL,41.9294736,-88.75036469999999,267.0382385253906,Central Daylight Time,-5.0
4094,DeLand,FL,29.028318,-81.3031179,11.36989593505859,Eastern Daylight Time,-4.0
4095,Denton,TX,33.2148412,-97.13306829999999,199.4781188964844,Central Daylight Time,-5.0
4096,Denver,CO,39.7392358,-104.990251,1596.672973632812,Mountain Daylight Time,-6.0
4097,Des Moines,IA,41.6005448,-93.6091064,266.3801574707031,Central Daylight Time,-5.0
4098,Detroit,MI,42.331427,-83.0457538,182.3301696777344,Eastern Daylight Time,-4.0
4099,Dover,DE,39.158168,-75.5243682,9.222969055175781,Eastern Daylight Time,-4.0
4100,Duluth,GA,34.0028786,-84.1446376,334.2595520019531,Eastern Daylight Time,-4.0
4101,Durham,NC,35.9940329,-78.898619,120.9079360961914,Eastern Daylight Time,-4.0
4102,Durham,NH,43.1339545,-70.9264393,13.36411380767822,Eastern Daylight Time,-4.0
4103,East Lansing,MI,42.7369792,-84.48386540000001,261.5490417480469,Eastern Daylight Time,-4.0
4104,East Rutherford,NJ,40.833989,-74.0970865,24.81060791015625,Eastern Daylight Time,-4.0
4105,Easton,PA,40.688432,-75.2207323,100.5874633789062,Eastern Daylight Time,-4.0
4106,Edinburg,TX,26.3017374,-98.1633432,28.75908660888672,Central Daylight Time,-5.0
4107,Edwardsville,IL,38.8114364,-89.95315699999999,166.8143463134766,Central Daylight Time,-5.0
4108,El Paso,TX,31.7618778,-106.4850217,1134.373168945312,Mountain Daylight Time,-6.0
4109,Elon,NC,36.09827620000001,-79.5115433,210.5898895263672,Eastern Daylight Time,-4.0
4110,Emmitsburg,MD,39.7045417,-77.32693069999999,135.5787200927734,Eastern Daylight Time,-4.0
4111,Estero,FL,26.438136,-81.8067523,3.624743461608887,Eastern Daylight Time,-4.0
4112,Eugene,OR,44.0520691,-123.0867536,131.0602111816406,Pacific Daylight Time,-7.0
4113,Evanston,IL,42.0450722,-87.68769689999999,184.2229766845703,Central Daylight Time,-5.0
4114,Evansville,IN,37.9715592,-87.5710898,118.2612609863281,Central Daylight Time,-5.0
4115,Fairfax,VA,38.84622359999999,-77.30637329999999,131.4553527832031,Eastern Daylight Time,-4.0
4116,Fairfield,CT,41.1408363,-73.2612615,5.032363891601562,Eastern Daylight Time,-4.0
4117,Fargo,ND,46.8771863,-96.7898034,275.0908203125,Central Daylight Time,-5.0
4118,Farmville,VA,37.3020965,-78.3919401,95.9873046875,Eastern Daylight Time,-4.0
4119,Fayetteville,AR,36.082156,-94.17185420000001,392.149658203125,Central Daylight Time,-5.0
4120,Flagstaff,AZ,35.1982836,-111.651302,2103.939453125,Mountain Standard Time,-7.0
4121,Fort Collins,CO,40.5852602,-105.084423,1525.08740234375,Mountain Daylight Time,-6.0
4122,Fort Hood,TX,31.1950013,-97.7413143,240.8761444091797,Central Daylight Time,-5.0
4123,Fort Myers,FL,26.640628,-81.8723084,3.245586395263672,Eastern Daylight Time,-4.0
4124,Fort Wayne,IN,41.079273,-85.1393513,233.6640472412109,Eastern Daylight Time,-4.0
4125,Fort Worth,TX,32.7554883,-97.3307658,188.8277130126953,Central Daylight Time,-5.0
4126,Fresno,CA,36.7468422,-119.7725868,92.60773468017578,Pacific Daylight Time,-7.0
4127,Fullerton,CA,33.8703645,-117.9242123,48.4811897277832,Pacific Daylight Time,-7.0
4128,Gainesville,FL,29.6516344,-82.32482619999999,55.27118682861328,Eastern Daylight Time,-4.0
4129,Garland,TX,32.912624,-96.63888329999999,170.0466918945312,Central Daylight Time,-5.0
4130,Glendale,AZ,33.5386523,-112.1859866,350.8721618652344,Mountain Standard Time,-7.0
4131,Glens Falls,NY,43.3095164,-73.6440058,104.6608963012695,Eastern Daylight Time,-4.0
4132,Grambling,LA,32.5276503,-92.7140402,92.74832153320312,Central Daylight Time,-5.0
4133,Grand Forks,ND,47.9252568,-97.0328547,252.96630859375,Central Daylight Time,-5.0
4134,Greeley,CO,40.4233142,-104.7091322,1424.012451171875,Mountain Daylight Time,-6.0
4135,Green Bay,WI,44.51915899999999,-88.019826,181.4461059570312,Central Daylight Time,-5.0
4136,Greensboro,NC,36.0726354,-79.7919754,251.0852508544922,Eastern Daylight Time,-4.0
4137,Greenville,MS,33.399661,-91.0377029,38.09271621704102,Central Daylight Time,-5.0
4138,Greenville,NC,35.612661,-77.3663538,17.48263931274414,Eastern Daylight Time,-4.0
4139,Greenville,SC,34.85261759999999,-82.3940104,298.6752014160156,Eastern Daylight Time,-4.0
4140,Greenwood,MS,33.5162315,-90.1795281,41.10813140869141,Central Daylight Time,-5.0
4141,Gulfport,MS,30.3674198,-89.0928155,6.206067562103271,Central Daylight Time,-5.0
4142,Hackensack,NJ,40.8859325,-74.0434736,6.160773754119873,Eastern Daylight Time,-4.0
4143,Hamden,CT,41.3838782,-72.9026064,21.53010749816895,Eastern Daylight Time,-4.0
4144,Hamilton,NY,42.8270136,-75.5446238,343.2666625976562,Eastern Daylight Time,-4.0
4145,Hammond,LA,30.5043583,-90.46119949999999,13.06888675689697,Central Daylight Time,-5.0
4146,Hampton,VA,37.0298687,-76.34522179999999,1.979974031448364,Eastern Daylight Time,-4.0
4147,Hanover,NH,43.7022451,-72.2895526,163.7394409179688,Eastern Daylight Time,-4.0
4148,Harrisonburg,VA,38.4495688,-78.8689155,408.2718811035156,Eastern Daylight Time,-4.0
4149,Hartford,CT,41.76371109999999,-72.6850932,16.13868522644043,Eastern Daylight Time,-4.0
4150,Hattiesburg,MS,31.3271189,-89.29033919999999,49.91648101806641,Central Daylight Time,-5.0
4151,Hempstead,NY,40.7062128,-73.6187397,17.04537010192871,Eastern Daylight Time,-4.0
4152,High Point,NC,35.9556923,-80.0053176,281.1091918945312,Eastern Daylight Time,-4.0
4153,Highland Heights,KY,39.0331169,-84.4518854,258.4728698730469,Eastern Daylight Time,-4.0
4154,Hoffman Estates,IL,42.0629915,-88.12271989999999,241.2194671630859,Central Daylight Time,-5.0
4155,Honolulu,HI,21.3069444,-157.8583333,5.22021484375,Hawaii-Aleutian Standard Time,-10.0
4156,Hot Springs,AR,34.5037004,-93.0551795,178.2125396728516,Central Daylight Time,-5.0
4157,Houston,TX,29.7604267,-95.3698028,14.56698131561279,Central Daylight Time,-5.0
4158,Huntington,WV,38.4192496,-82.44515400000002,172.4207153320312,Eastern Daylight Time,-4.0
4159,Huntsville,AL,34.7303688,-86.5861037,194.7049560546875,Central Daylight Time,-5.0
4160,Huntsville,TX,30.7235263,-95.55077709999999,113.9550857543945,Central Daylight Time,-5.0
4161,Indianapolis,IN,39.768403,-86.158068,222.7997283935547,Eastern Daylight Time,-4.0
4162,Iowa City,IA,41.6611277,-91.5301683,203.7541961669922,Central Daylight Time,-5.0
4163,Irvine,CA,33.6845673,-117.8265049,11.57025718688965,Pacific Daylight Time,-7.0
4164,Ithaca,NY,42.4439614,-76.5018807,119.5649719238281,Eastern Daylight Time,-4.0
4165,Itta Bena,MS,33.49512,-90.3198067,40.96720886230469,Central Daylight Time,-5.0
4166,Jackson,MS,32.2987573,-90.1848103,86.8384017944336,Central Daylight Time,-5.0
4167,Jacksonville,AL,33.8137125,-85.76135359999999,217.0318450927734,Central Daylight Time,-5.0
4168,Jacksonville,FL,30.3321838,-81.65565099999999,4.784560680389404,Eastern Daylight Time,-4.0
4169,Jersey City,NJ,40.72815749999999,-74.0776417,10.18675327301025,Eastern Daylight Time,-4.0
4170,Johnson City,TN,36.3134397,-82.3534727,499.8729553222656,Eastern Daylight Time,-4.0
4171,Johnstown,PA,40.32674069999999,-78.9219698,355.1664123535156,Eastern Daylight Time,-4.0
4172,Jonesboro,AR,35.84229670000001,-90.704279,98.1375503540039,Central Daylight Time,-5.0
4173,Kalamazoo,MI,42.2917069,-85.5872286,239.9346923828125,Eastern Daylight Time,-4.0
4174,Kansas City,MO,39.0997265,-94.5785667,273.5455017089844,Central Daylight Time,-5.0
4175,Katy,TX,29.7857853,-95.8243956,42.47363662719727,Central Daylight Time,-5.0
4176,Kennesaw,GA,34.0234337,-84.6154897,331.5713806152344,Eastern Daylight Time,-4.0
4177,Kent,OH,41.1536674,-81.3578859,324.2500610351562,Eastern Daylight Time,-4.0
4178,Kent,WA,47.3809335,-122.2348432,11.98078441619873,Pacific Daylight Time,-7.0
4179,Kingston,RI,41.48037910000001,-71.52255980000001,75.05209350585938,Eastern Daylight Time,-4.0
4180,Knoxville,TN,35.9606384,-83.9207392,275.6912841796875,Eastern Daylight Time,-4.0
4181,Lafayette,LA,30.2240897,-92.0198427,11.10337543487549,Central Daylight Time,-5.0
4182,Lahaina,HI,20.8783333,-156.6825,0.747169554233551,Hawaii-Aleutian Standard Time,-10.0
4183,Lake Buena Vista,FL,28.3936186,-81.53868419999999,31.6673583984375,Eastern Daylight Time,-4.0
4184,Lake Charles,LA,30.2265949,-93.2173758,4.352334499359131,Central Daylight Time,-5.0
4185,Lakeland,FL,28.0394654,-81.9498042,59.45719909667969,Eastern Daylight Time,-4.0
4186,Laramie,WY,41.3113669,-105.5911007,2184.6279296875,Mountain Daylight Time,-6.0
4187,Las Cruces,NM,32.3199396,-106.7636538,1217.035522460938,Mountain Daylight Time,-6.0
4188,Las Vegas,NV,36.1699412,-115.1398296,611.3375244140625,Pacific Daylight Time,-7.0
4189,Lawrence,KS,38.9716689,-95.2352501,263.9754638671875,Central Daylight Time,-5.0
4190,Lawrenceville,NJ,40.3016375,-74.7361013,57.21894454956055,Eastern Daylight Time,-4.0
4191,Lewisburg,PA,40.9645293,-76.8844101,143.1148223876953,Eastern Daylight Time,-4.0
4192,Lewiston,NY,43.1919494,-78.9853813,105.7344360351562,Eastern Daylight Time,-4.0
4193,Lexington,KY,38.0405837,-84.5037164,291.1369323730469,Eastern Daylight Time,-4.0
4194,Lexington,VA,37.78402080000001,-79.4428157,320.1503295898438,Eastern Daylight Time,-4.0
4195,Lincoln,NE,40.8257625,-96.6851982,354.4519653320312,Central Daylight Time,-5.0
4196,Little Rock,AR,34.7464809,-92.28959479999999,102.1804122924805,Central Daylight Time,-5.0
4197,Logan,UT,41.7369803,-111.8338359,1379.981811523438,Mountain Daylight Time,-6.0
4198,Long Beach,CA,33.7700504,-118.1937395,9.87485122680664,Pacific Daylight Time,-7.0
4199,Loretto,PA,40.5031263,-78.630296,591.2216186523438,Eastern Daylight Time,-4.0
4200,Lorman,MS,31.8204396,-91.05010569999999,66.67445373535156,Central Daylight Time,-5.0
4201,Los Angeles,CA,34.0522342,-118.2436849,86.84709167480469,Pacific Daylight Time,-7.0
4202,Loudonville,NY,42.7048009,-73.7548424,106.2772674560547,Eastern Daylight Time,-4.0
4203,Louisville,KY,38.2526647,-85.7584557,140.6603088378906,Eastern Daylight Time,-4.0
4204,Lowell,MA,42.6334247,-71.31617179999999,35.65705490112305,Eastern Daylight Time,-4.0
4205,Lubbock,TX,33.5778631,-101.8551665,975.9893798828125,Central Daylight Time,-5.0
4206,Lynchburg,VA,37.4137536,-79.14224639999999,195.8340911865234,Eastern Daylight Time,-4.0
4207,Macomb,IL,40.4592076,-90.67179709999999,212.3209228515625,Central Daylight Time,-5.0
4208,Macon,GA,32.8406946,-83.6324022,113.2749862670898,Eastern Daylight Time,-4.0
4209,Madison,WI,43.0730517,-89.4012302,266.2826538085938,Central Daylight Time,-5.0
4210,Malibu,CA,34.0259216,-118.7797571,36.96817779541016,Pacific Daylight Time,-7.0
4211,Manhattan,KS,39.18360819999999,-96.57166939999999,311.8172912597656,Central Daylight Time,-5.0
4212,Martin,TN,36.3433965,-88.8503379,125.670166015625,Central Daylight Time,-5.0
4213,Memphis,TN,35.1495343,-90.0489801,79.19601440429688,Central Daylight Time,-5.0
4214,Miami,FL,25.7616798,-80.1917902,0.5368872284889221,Eastern Daylight Time,-4.0
4215,Milwaukee,WI,43.0389025,-87.9064736,187.2318572998047,Central Daylight Time,-5.0
4216,Minneapolis,MN,44.977753,-93.2650108,254.7844543457031,Central Daylight Time,-5.0
4217,Missoula,MT,46.87871759999999,-113.996586,977.0648193359375,Mountain Daylight Time,-6.0
4218,Mobile,AL,30.6953657,-88.0398912,1.415021657943726,Central Daylight Time,-5.0
4219,Monroe,LA,32.5093109,-92.1193012,23.22146987915039,Central Daylight Time,-5.0
4220,Montgomery,AL,32.3668052,-86.2999689,72.94284057617188,Central Daylight Time,-5.0
4221,Moon Township,PA,40.51697670000001,-80.22134770000001,347.6758728027344,Eastern Daylight Time,-4.0
4222,Moraga,CA,37.8349263,-122.1296871,149.2892608642578,Pacific Daylight Time,-7.0
4223,Morehead,KY,38.1839705,-83.4326841,224.0564117431641,Eastern Daylight Time,-4.0
4224,Morgantown,WV,39.629526,-79.95589679999999,270.9660949707031,Eastern Daylight Time,-4.0
4225,Moscow,ID,46.73238749999999,-117.000165,787.0984497070312,Pacific Daylight Time,-7.0
4226,Mt. Pleasant,MI,43.59780749999999,-84.7675139,234.9934387207031,Eastern Daylight Time,-4.0
4227,Muncie,IN,40.1933767,-85.3863599,289.8502197265625,Eastern Daylight Time,-4.0
4228,Murfreesboro,TN,35.8456213,-86.39027,189.2773132324219,Central Daylight Time,-5.0
4229,Murray,KY,36.6103334,-88.31476099999999,164.3890991210938,Central Daylight Time,-5.0
4230,Myrtle Beach,SC,33.6890603,-78.8866943,8.438035011291504,Eastern Daylight Time,-4.0
4231,Nacogdoches,TX,31.6035129,-94.6554874,92.47804260253906,Central Daylight Time,-5.0
4232,Nampa,ID,43.5407172,-116.5634625,767.8910522460938,Mountain Daylight Time,-6.0
4233,Nashville,TN,36.1626638,-86.7816016,152.9394073486328,Central Daylight Time,-5.0
4234,Natchitoches,LA,31.7607195,-93.08627489999999,36.47224426269531,Central Daylight Time,-5.0
4235,New Britain,CT,41.6612104,-72.7795419,51.09162521362305,Eastern Daylight Time,-4.0
4236,New Haven,CT,41.308274,-72.9278835,12.35730648040771,Eastern Daylight Time,-4.0
4237,New Orleans,LA,29.95106579999999,-90.0715323,0.5217891335487366,Central Daylight Time,-5.0
4238,New Rochelle,NY,40.9114882,-73.7823549,25.88694953918457,Eastern Daylight Time,-4.0
4239,New York,NY,40.7127753,-74.0059728,10.44183826446533,Eastern Daylight Time,-4.0
4240,Newark,DE,39.6837226,-75.74965720000002,38.23302459716797,Eastern Daylight Time,-4.0
4241,Newark,NJ,40.735657,-74.1723667,9.807595252990723,Eastern Daylight Time,-4.0
4242,Niagara Falls,NY,43.0962143,-79.0377388,176.6798248291016,Eastern Daylight Time,-4.0
4243,Niceville,FL,30.5168639,-86.48217199999999,12.20206928253174,Central Daylight Time,-5.0
4244,Norfolk,VA,36.8507689,-76.28587259999999,4.641374111175537,Eastern Daylight Time,-4.0
4245,Normal,AL,34.78384090000001,-86.5722237,220.4321899414062,Central Daylight Time,-5.0
4246,Normal,IL,40.5142026,-88.9906312,246.02197265625,Central Daylight Time,-5.0
4247,Norman,OK,35.2225668,-97.4394777,359.0086669921875,Central Daylight Time,-5.0
4248,North Little Rock,AR,34.769536,-92.2670941,83.15779876708984,Central Daylight Time,-5.0
4249,Northridge,CA,34.2381251,-118.530123,263.8038024902344,Pacific Daylight Time,-7.0
4250,Notre Dame,IN,41.7055716,-86.2353388,220.7359161376953,Eastern Daylight Time,-4.0
4251,Oakland,CA,37.8043637,-122.2711137,13.02748012542725,Pacific Daylight Time,-7.0
4252,Oakland City,IN,38.3386591,-87.3450132,139.9906005859375,Central Daylight Time,-5.0
4253,Ogden,UT,41.223,-111.9738304,1311.276123046875,Mountain Daylight Time,-6.0
4254,Oklahoma City,OK,35.4675602,-97.5164276,366.0434265136719,Central Daylight Time,-5.0
4255,Omaha,NE,41.2523634,-95.99798829999999,362.512451171875,Central Daylight Time,-5.0
4256,Orangeburg,SC,33.4918203,-80.8556476,73.92286682128906,Eastern Daylight Time,-4.0
4257,Orem,UT,40.2968979,-111.6946475,1452.274169921875,Mountain Daylight Time,-6.0
4258,Orlando,FL,28.5383355,-81.3792365,31.2812614440918,Eastern Daylight Time,-4.0
4259,Orono,ME,44.8831125,-68.6719411,38.1016845703125,Eastern Daylight Time,-4.0
4260,Oxford,MS,34.3664951,-89.5192484,156.1234436035156,Central Daylight Time,-5.0
4261,Oxford,OH,39.5069974,-84.74523099999999,280.8930053710938,Eastern Daylight Time,-4.0
4262,Paradise,NV,36.0971945,-115.1466648,626.1868896484375,Pacific Daylight Time,-7.0
4263,Paradise Island,BA,25.0821287,-77.3134431,9.70425796508789,Eastern Daylight Time,-4.0
4264,Pearl Harbor-Hickam,HI,21.3488372,-157.9435574,6.876280784606934,Hawaii-Aleutian Standard Time,-10.0
4265,Peoria,IL,40.6936488,-89.5889864,153.0057525634766,Central Daylight Time,-5.0
4266,Philadelphia,PA,39.9525839,-75.1652215,14.32654094696045,Eastern Daylight Time,-4.0
4267,Phoenix,AZ,33.4483771,-112.0740373,331.5245056152344,Mountain Standard Time,-7.0
4268,Pine Bluff,AR,34.2284312,-92.00319549999999,68.72623443603516,Central Daylight Time,-5.0
4269,Piscataway,NJ,40.554887,-74.4642861,19.98725891113281,Eastern Daylight Time,-4.0
4270,Pittsburgh,PA,40.44062479999999,-79.9958864,233.2363739013672,Eastern Daylight Time,-4.0
4271,Playa del Carmen,MX,20.6295586,-87.0738851,10.47855949401855,Central Standard Time,-6.0
4272,Pocatello,ID,42.8713032,-112.4455344,1360.20654296875,Mountain Daylight Time,-6.0
4273,Portland,ME,43.66147100000001,-70.2553259,16.04468536376953,Eastern Daylight Time,-4.0
4274,Portland,OR,45.5230622,-122.6764815,10.24579238891602,Pacific Daylight Time,-7.0
4275,Poughkeepsie,NY,41.7003713,-73.9209701,60.15327453613281,Eastern Daylight Time,-4.0
4276,Prairie View,TX,30.0932737,-95.9877339,83.11751556396484,Central Daylight Time,-5.0
4277,Presbyterian,SC,34.465182,-81.87755899999999,207.4977111816406,Eastern Daylight Time,-4.0
4278,Prescott Valley,AZ,34.6100243,-112.315721,1528.52490234375,Mountain Standard Time,-7.0
4279,Princess Anne,MD,38.2028993,-75.692427,4.806944847106934,Eastern Daylight Time,-4.0
4280,Princeton,NJ,40.3572976,-74.6672226,41.39227294921875,Eastern Daylight Time,-4.0
4281,Providence,RI,41.8239891,-71.4128343,2.790159702301025,Eastern Daylight Time,-4.0
4282,Provo,UT,40.2338438,-111.6585337,1386.9697265625,Mountain Daylight Time,-6.0
4283,Puerto Vallarta,MX,20.653407,-105.2253316,7.704025745391846,Central Standard Time,-6.0
4284,Pullman,WA,46.7297771,-117.1817377,715.9334716796875,Pacific Daylight Time,-7.0
4285,Queens,NY,40.7282239,-73.7948516,18.71355819702148,Eastern Daylight Time,-4.0
4286,Radford,VA,37.13179239999999,-80.5764477,569.87158203125,Eastern Daylight Time,-4.0
4287,Raleigh,NC,35.7795897,-78.6381787,105.6290054321289,Eastern Daylight Time,-4.0
4288,Ramstein-Miesenbach,GY,49.44995,7.565399999999999,248.6601867675781,Central European Standard Time,1.0
4289,Rapid City,SD,44.0805434,-103.2310149,987.7908325195312,Mountain Daylight Time,-6.0
4290,Reno,NV,39.5296329,-119.8138027,1371.919311523438,Pacific Daylight Time,-7.0
4291,Richmond,KY,37.7478572,-84.2946539,289.5526428222656,Eastern Daylight Time,-4.0
4292,Richmond,VA,37.5407246,-77.4360481,51.58815765380859,Eastern Daylight Time,-4.0
4293,Riverdale,NY,40.8940853,-73.9109977,48.99361038208008,Eastern Daylight Time,-4.0
4294,Riverside,CA,33.9533487,-117.3961564,252.8027648925781,Pacific Daylight Time,-7.0
4295,Rochester,MI,42.680588,-83.1338214,230.1312255859375,Eastern Daylight Time,-4.0
4296,Rochester,NY,43.16103,-77.6109219,153.6502838134766,Eastern Daylight Time,-4.0
4297,Rock Hill,SC,34.9248667,-81.02507840000001,206.3642730712891,Eastern Daylight Time,-4.0
4298,Rosemont,IL,41.98675069999999,-87.8721602,198.4229736328125,Central Daylight Time,-5.0
4299,Ruston,LA,32.5232053,-92.63792699999999,101.3185882568359,Central Daylight Time,-5.0
4300,Sacramento,CA,38.5815719,-121.4943996,8.194785118103027,Pacific Daylight Time,-7.0
4301,Salt Lake City,UT,40.7607793,-111.8910474,1300.004516601562,Mountain Daylight Time,-6.0
4302,San Antonio,TX,29.4241219,-98.49362819999999,198.9276428222656,Central Daylight Time,-5.0
4303,San Diego,CA,32.715738,-117.1610838,15.22497749328613,Pacific Daylight Time,-7.0
4304,San Francisco,CA,37.7749295,-122.4194155,15.55781936645508,Pacific Daylight Time,-7.0
4305,San Jose,CA,37.3382082,-121.8863286,24.55533409118652,Pacific Daylight Time,-7.0
4306,San Juan,PR,18.4655394,-66.1057355,2.999906778335571,Atlantic Standard Time,-4.0
4307,San Juan,PR,18.4655394,-66.1057355,2.999906778335571,Atlantic Standard Time,-4.0
4308,San Luis Obispo,CA,35.2827524,-120.6596156,69.10917663574219,Pacific Daylight Time,-7.0
4309,San Marcos,TX,29.8832749,-97.9413941,189.8126220703125,Central Daylight Time,-5.0
4310,Santa Barbara,CA,34.4208305,-119.6981901,11.8902006149292,Pacific Daylight Time,-7.0
4311,Santa Clara,CA,37.3541079,-121.9552356,22.02380752563477,Pacific Daylight Time,-7.0
4312,Savannah,GA,32.0835407,-81.09983419999999,5.466666221618652,Eastern Daylight Time,-4.0
4313,Seattle,WA,47.6062095,-122.3320708,56.08481597900391,Pacific Daylight Time,-7.0
4314,Shanghai,CH,31.2303904,121.4737021,15.85985374450684,China Standard Time,8.0
4315,Shreveport,LA,32.5251516,-93.7501789,47.26740264892578,Central Daylight Time,-5.0
4316,Sioux Falls,SD,43.5445959,-96.73110340000001,443.0331726074219,Central Daylight Time,-5.0
4317,Smithfield,RI,41.9220496,-71.54951009999999,78.31209564208984,Eastern Daylight Time,-4.0
4318,South Bend,IN,41.6763545,-86.25198979999999,215.9745635986328,Eastern Daylight Time,-4.0
4319,South Korea,SK,35.907757,127.766922,561.03466796875,Korean Standard Time,9.0
4320,South Orange,NJ,40.7489277,-74.2609903,42.45837020874023,Eastern Daylight Time,-4.0
4321,South Padre Island,TX,26.1118401,-97.16812569999999,1.122702479362488,Central Daylight Time,-5.0
4322,Southaven,MS,34.9918587,-90.0022958,101.7129669189453,Central Daylight Time,-5.0
4323,Spartanburg,SC,34.9495672,-81.9320482,245.4862976074219,Eastern Daylight Time,-4.0
4324,Spokane,WA,47.6587802,-117.4260465,571.0994873046875,Pacific Daylight Time,-7.0
4325,Springfield,IL,39.78172130000001,-89.6501481,183.1135864257812,Central Daylight Time,-5.0
4326,Springfield,MA,42.1014831,-72.589811,20.62252998352051,Eastern Daylight Time,-4.0
4327,Springfield,MO,37.2089572,-93.29229889999999,398.2716369628906,Central Daylight Time,-5.0
4328,St. Bonaventure,NY,42.0803426,-78.4750213,435.2680969238281,Eastern Daylight Time,-4.0
4329,St. Louis,MO,38.6270025,-90.19940419999999,140.9563293457031,Central Daylight Time,-5.0
4330,St. Thomas,VI,18.3380965,-64.8940946,49.19923400878906,Atlantic Standard Time,-4.0
4331,Stanford,CA,37.42410599999999,-122.1660756,29.29935455322266,Pacific Daylight Time,-7.0
4332,Starkville,MS,33.4503998,-88.81838719999999,102.1877136230469,Central Daylight Time,-5.0
4333,Staten Island,NY,40.5795317,-74.1502007,32.77705764770508,Eastern Daylight Time,-4.0
4334,Statesboro,GA,32.4487876,-81.7831674,77.67086791992188,Eastern Daylight Time,-4.0
4335,Stillwater,OK,36.1156071,-97.0583681,273.3434753417969,Central Daylight Time,-5.0
4336,Stockton,CA,37.9577016,-121.2907796,4.496073246002197,Pacific Daylight Time,-7.0
4337,Stony Brook,NY,40.9256538,-73.1409429,26.97613716125488,Eastern Daylight Time,-4.0
4338,Storrs,CT,41.8084314,-72.24952309999999,181.94775390625,Eastern Daylight Time,-4.0
4339,Sunrise,FL,26.1669711,-80.25659499999999,2.483451128005981,Eastern Daylight Time,-4.0
4340,Syracuse,NY,43.0481221,-76.14742439999999,121.3621368408203,Eastern Daylight Time,-4.0
4341,Tallahassee,FL,30.4382559,-84.28073289999999,62.17602157592773,Eastern Daylight Time,-4.0
4342,Tampa,FL,27.950575,-82.4571776,6.090157508850098,Eastern Daylight Time,-4.0
4343,Tempe,AZ,33.4255104,-111.9400054,354.3406982421875,Mountain Standard Time,-7.0
4344,Terre Haute,IN,39.4667034,-87.41390919999999,152.7464294433594,Eastern Daylight Time,-4.0
4345,Thibodaux,LA,29.7957633,-90.82287099999999,3.82996392250061,Central Daylight Time,-5.0
4346,Toledo,OH,41.6639383,-83.55521200000001,186.0617065429688,Eastern Daylight Time,-4.0
4347,Tortola,VI,18.4334704,-64.63327819999999,292.7323913574219,Atlantic Standard Time,-4.0
4348,Towson,MD,39.4014955,-76.6019125,141.2901458740234,Eastern Daylight Time,-4.0
4349,Troy,AL,31.8087678,-85.969951,163.9822692871094,Central Daylight Time,-5.0
4350,Tucson,AZ,32.2217429,-110.926479,756.5394287109375,Mountain Standard Time,-7.0
4351,Tulsa,OK,36.1539816,-95.99277500000001,218.9133148193359,Central Daylight Time,-5.0
4352,Tupelo,MS,34.2576066,-88.7033859,83.66314697265625,Central Daylight Time,-5.0
4353,Tuscaloosa,AL,33.2098407,-87.56917349999999,69.0890121459961,Central Daylight Time,-5.0
4354,Uncasville,CT,41.43169049999999,-72.1100945,24.80785369873047,Eastern Daylight Time,-4.0
4355,University Park,PA,40.8147955,-77.86531260000001,349.101318359375,Eastern Daylight Time,-4.0
4356,USAF Academy,CO,38.9983094,-104.8613176,2108.50048828125,Mountain Daylight Time,-6.0
4357,Valparaiso,IN,41.4730948,-87.0611412,242.7269287109375,Central Daylight Time,-5.0
4358,Vancouver,BC,49.2827291,-123.1207375,31.52193450927734,Pacific Daylight Time,-7.0
4359,Vermillion,SD,42.7794417,-96.9292104,372.484375,Central Daylight Time,-5.0
4360,Vestal,NY,42.0855898,-76.053575,252.1984100341797,Eastern Daylight Time,-4.0
4361,Villanova,PA,40.0375832,-75.3491813,121.6024780273438,Eastern Daylight Time,-4.0
4362,Waco,TX,31.549333,-97.1466695,143.4179992675781,Central Daylight Time,-5.0
4363,Washington,DC,38.9071923,-77.0368707,22.01889228820801,Eastern Daylight Time,-4.0
4364,West Hartford,CT,41.7620842,-72.7420151,38.78234481811523,Eastern Daylight Time,-4.0
4365,West Lafayette,IN,40.4258686,-86.90806549999999,185.9382781982422,Eastern Daylight Time,-4.0
4366,West Long Branch,NJ,40.2903891,-74.0176381,7.187990665435791,Eastern Daylight Time,-4.0
4367,West Point,NY,41.3914827,-73.95597210000001,47.37548446655273,Eastern Daylight Time,-4.0
4368,Wichita,KS,37.68717609999999,-97.33005299999999,399.9556579589844,Central Daylight Time,-5.0
4369,Williamsburg,VA,37.2707022,-76.7074571,25.96640586853027,Eastern Daylight Time,-4.0
4370,Wilmington,NC,34.2257255,-77.9447102,11.22068977355957,Eastern Daylight Time,-4.0
4371,Winston-Salem,NC,36.09985959999999,-80.244216,278.0033569335938,Eastern Daylight Time,-4.0
4372,Worcester,MA,42.2625932,-71.8022934,147.0316009521484,Eastern Daylight Time,-4.0
4373,Youngstown,OH,41.0997803,-80.6495194,261.49755859375,Eastern Daylight Time,-4.0
4374,Ypsilanti,MI,42.2411499,-83.61299389999999,221.179931640625,Eastern Daylight Time,-4.0
4375,Allston,MA,42.3539038,-71.1337112,13.34664154052734,Eastern Daylight Time,-4.0
4376,Biloxi,MS,30.3960318,-88.88530779999999,6.167840957641602,Central Daylight Time,-5.0
4377,Binghampton,NY,42.09868669999999,-75.91797380000001,263.7673645019531,Eastern Daylight Time,-4.0
4378,Binghamton,NY,42.09868669999999,-75.91797380000001,263.7673645019531,Eastern Daylight Time,-4.0
4379,Cantonsville,MD,39.2720509,-76.73191609999999,145.4309997558594,Eastern Daylight Time,-4.0
4380,Colorado Springs,CO,38.8338816,-104.8213634,1831.081909179688,Mountain Daylight Time,-6.0
4381,Columbia,MO,38.9517053,-92.3340724,215.634521484375,Central Daylight Time,-5.0
4382,Freeport,BA,26.5416093,-78.64554749999999,5.80519437789917,Eastern Daylight Time,-4.0
4383,Guaynabo,PR,18.3615548,-66.11106819999999,38.98093795776367,Atlantic Standard Time,-4.0
4384,Guilderland,NY,42.7043568,-73.9116433,63.69070434570312,Eastern Daylight Time,-4.0
4385,Laie,HI,21.6482858,-157.9225549,1.517265439033508,Hawaii-Aleutian Standard Time,-10.0
4386,Maui,HI,20.7983626,-156.3319253,660.7615356445312,Hawaii-Aleutian Standard Time,-10.0
4387,Moline,IL,41.5067003,-90.51513419999999,176.7171478271484,Central Daylight Time,-5.0
4388,Mount Pleasant,MI,43.59780749999999,-84.7675139,234.9934387207031,Eastern Daylight Time,-4.0
4389,New York City,NY,40.7127753,-74.0059728,10.44183826446533,Eastern Daylight Time,-4.0
4390,North Charleston,SC,32.8546197,-79.9748103,5.400674819946289,Eastern Daylight Time,-4.0
4391,Ocala,FL,29.1871986,-82.14009229999999,21.13623237609863,Eastern Daylight Time,-4.0
4392,Panama City,FL,30.1588129,-85.6602058,7.707507610321045,Central Daylight Time,-5.0
4393,Portsmouth,VA,36.8354258,-76.2982742,2.60088849067688,Eastern Daylight Time,-4.0
4394,Potatello,ID,42.8713032,-112.4455344,1360.20654296875,Mountain Daylight Time,-6.0
4395,Ralston,NE,41.2002566,-96.031987,323.7069091796875,Central Daylight Time,-5.0
4396,St. Charles,MO,38.7881062,-90.4974359,175.0492706298828,Central Daylight Time,-5.0
4397,Starksville,MS,33.4503998,-88.81838719999999,102.1877136230469,Central Daylight Time,-5.0
4398,Teaneck,NJ,40.8932469,-74.0116536,37.89851379394531,Eastern Daylight Time,-4.0
4399,Trujillo Alto,PR,18.3563169,-66.0033838,18.93695259094238,Atlantic Standard Time,-4.0
4400,Tuscon,AZ,32.2217429,-110.926479,756.5394287109375,Mountain Standard Time,-7.0
4401,University,MS,34.3659395,-89.5253597,152.5261077880859,Central Daylight Time,-5.0
4402,Upper Marlboro,MD,38.8159473,-76.74969089999999,8.071707725524902,Eastern Daylight Time,-4.0
4403,Wailuku,HI,20.8911111,-156.5047222,76.2506103515625,Hawaii-Aleutian Standard Time,-10.0
4404,Winter Park,FL,28.5999998,-81.33923519999999,29.53255081176758,Eastern Daylight Time,-4.0
